{"fetched_at":"2026-07-10T18:08:07.734Z","source":"https://celestrak.org/NORAD/elements/gp.php?NAME=EROS&FORMAT=JSON","constellation":"eros","records":[{"OBJECT_NAME":"EROS C3","OBJECT_ID":"2022-179A","EPOCH":"2026-07-10T06:56:51.825408","CLASSIFICATION_TYPE":"U","MEAN_MOTION":15.11006598,"ECCENTRICITY":0.00064694,"INCLINATION":139.3344,"RA_OF_ASC_NODE":136.872,"ARG_OF_PERICENTER":143.6633,"MEAN_ANOMALY":216.4614,"EPHEMERIS_TYPE":0,"NORAD_CAT_ID":54880,"ELEMENT_SET_NO":999,"REV_AT_EPOCH":19582,"BSTAR":0.00018092312,"MEAN_MOTION_DOT":0.00003321,"MEAN_MOTION_DDOT":0}]}
