EROS C3                 
1 54880U 22179A   26191.28948872  .00003321  00000+0  18092-3 0  9994
2 54880 139.3344 136.8720 0006469 143.6633 216.4614 15.11006598195827
